{"type": "FeatureCollection", "features": [ {"type": "Feature", "properties": {"norad_id": 57401, "name": "TIANMU-1 09", "group": "weather", "lat": -27.22315620919258, "lon": 36.85772413417174, "alt_km": 489.8414829037856, "timestamp": "2025-12-09T20:37:08.926174+00:00", "meta": {"OBJECT_NAME": "TIANMU-1 09", "OBJECT_ID": "2023-101C", "EPOCH": "2025-12-09T14:27:08.639712", "MEAN_MOTION": 15.28010658, "ECCENTRICITY": 0.00068122, "INCLINATION": 97.2822, "RA_OF_ASC_NODE": 32.8347, "ARG_OF_PERICENTER": 92.2411, "MEAN_ANOMALY": 267.9609, "EPHEMERIS_TYPE": 0, "CLASSIFICATION_TYPE": "U", "NORAD_CAT_ID": 57401, "ELEMENT_SET_NO": 999, "REV_AT_EPOCH": 13267, "BSTAR": 0.00038711515, "MEAN_MOTION_DOT": 0.00010516, "MEAN_MOTION_DDOT": 0}, "tle": {"line1": "1 57401U 23101C   25343.60218333  .00010516  00000+0  38712-3 0  9993", "line2": "2 57401  97.2822  32.8347 0006812  92.2411 267.9609 15.28010658132676"}}, "geometry": {"type": "Point", "coordinates": [36.85772413417174, -27.22315620919258]}}, {"type": "Feature", "properties": {"norad_id": 57402, "name": "TIANMU-1 10", "group": "weather", "lat": 34.762589355871505, "lon": -140.96981473997573, "alt_km": 476.0526786356995, "timestamp": "2025-12-09T20:37:08.926191+00:00", "meta": {"OBJECT_NAME": "TIANMU-1 10", "OBJECT_ID": "2023-101D", "EPOCH": "2025-12-09T13:42:05.240736", "MEAN_MOTION": 15.28001286, "ECCENTRICITY": 0.00085628, "INCLINATION": 97.2903, "RA_OF_ASC_NODE": 33.6506, "ARG_OF_PERICENTER": 92.5267, "MEAN_ANOMALY": 267.6953, "EPHEMERIS_TYPE": 0, "CLASSIFICATION_TYPE": "U", "NORAD_CAT_ID": 57402, "ELEMENT_SET_NO": 999, "REV_AT_EPOCH": 13266, "BSTAR": 0.00041158101, "MEAN_MOTION_DOT": 0.00011187, "MEAN_MOTION_DDOT": 0}, "tle": {"line1": "1 57402U 23101D   25343.57089399  .00011187  00000+0  41158-3 0  9991", "line2": "2 57402  97.2903  33.6506 0008562  92.5267 267.6953 15.28001286132664"}}, "geometry": {"type": "Point", "coordinates": [-140.96981473997573, 34.762589355871505]}}, {"type": "Feature", "properties": {"norad_id": 57490, "name": "FENGYUN 3F", "group": "weather", "lat": 79.42667256802466, "lon": -2.999038671707154, "alt_km": 817.8650991257336, "timestamp": "2025-12-09T20:37:08.926203+00:00", "meta": {"OBJECT_NAME": "FENGYUN 3F", "OBJECT_ID": "2023-111A", "EPOCH": "2025-12-09T15:09:05.201280", "MEAN_MOTION": 14.19892435, "ECCENTRICITY": 6.543e-05, "INCLINATION": 98.7087, "RA_OF_ASC_NODE": 51.9748, "ARG_OF_PERICENTER": 96.11, "MEAN_ANOMALY": 264.015, "EPHEMERIS_TYPE": 0, "CLASSIFICATION_TYPE": "U", "NORAD_CAT_ID": 57490, "ELEMENT_SET_NO": 999, "REV_AT_EPOCH": 12196, "BSTAR": 9.9601123e-05, "MEAN_MOTION_DOT": 1.68e-06, "MEAN_MOTION_DDOT": 0}, "tle": {"line1": "1 57490U 23111A   25343.63131020  .00000168  00000+0  99601-4 0  9999", "line2": "2 57490  98.7087  51.9748 0000654  96.1100 264.0150 14.19892435121965"}}, "geometry": {"type": "Point", "coordinates": [-2.999038671707154, 79.42667256802466]}}, {"type": "Feature", "properties": {"norad_id": 58584, "name": "ARKTIKA-M 2", "group": "weather", "lat": 23.545091134177476, "lon": -172.08509498786515, "alt_km": 14511.229603855012, "timestamp": "2025-12-09T20:37:08.926218+00:00", "meta": {"OBJECT_NAME": "ARKTIKA-M 2", "OBJECT_ID": "2023-198A", "EPOCH": "2025-12-08T20:10:13.977120", "MEAN_MOTION": 2.0060476, "ECCENTRICITY": 0.68646991, "INCLINATION": 63.2247, "RA_OF_ASC_NODE": 175.3152, "ARG_OF_PERICENTER": 268.1185, "MEAN_ANOMALY": 18.8267, "EPHEMERIS_TYPE": 0, "CLASSIFICATION_TYPE": "U", "NORAD_CAT_ID": 58584, "ELEMENT_SET_NO": 999, "REV_AT_EPOCH": 1450, "BSTAR": 0, "MEAN_MOTION_DOT": 1.66e-06, "MEAN_MOTION_DDOT": 0}, "tle": {"line1": "1 58584U 23198A   25342.84043955  .00000166  00000+0  00000+0 0  9998", "line2": "2 58584  63.2247 175.3152 6864699 268.1185  18.8267  2.00604760 14506"}}, "geometry": {"type": "Point", "coordinates": [-172.08509498786515, 23.545091134177476]}}, {"type": "Feature", "properties": {"norad_id": 58645, "name": "TIANMU-1 11", "group": "weather", "lat": -0.29349918362805094, "lon": 3.570726556291946, "alt_km": 490.8355474561631, "timestamp": "2025-12-09T20:37:08.926232+00:00", "meta": {"OBJECT_NAME": "TIANMU-1 11", "OBJECT_ID": "2023-205A", "EPOCH": "2025-12-09T14:19:09.933600", "MEAN_MOTION": 15.24539701, "ECCENTRICITY": 0.00081661, "INCLINATION": 97.3608, "RA_OF_ASC_NODE": 3.2749, "ARG_OF_PERICENTER": 323.2504, "MEAN_ANOMALY": 36.8173, "EPHEMERIS_TYPE": 0, "CLASSIFICATION_TYPE": "U", "NORAD_CAT_ID": 58645, "ELEMENT_SET_NO": 999, "REV_AT_EPOCH": 10861, "BSTAR": 0.00038691723, "MEAN_MOTION_DOT": 9.464e-05, "MEAN_MOTION_DDOT": 0}, "tle": {"line1": "1 58645U 23205A   25343.59664275  .00009464  00000+0  38692-3 0  9994", "line2": "2 58645  97.3608   3.2749 0008166 323.2504  36.8173 15.24539701108619"}}, "geometry": {"type": "Point", "coordinates": [3.570726556291946, -0.29349918362805094]}}, {"type": "Feature", "properties": {"norad_id": 58646, "name": "TIANMU-1 12", "group": "weather", "lat": -32.936784155689544, "lon": 178.53604903057334, "alt_km": 498.838789094234, "timestamp": "2025-12-09T20:37:08.926682+00:00", "meta": {"OBJECT_NAME": "TIANMU-1 12", "OBJECT_ID": "2023-205B", "EPOCH": "2025-12-09T14:57:37.091808", "MEAN_MOTION": 15.24419608, "ECCENTRICITY": 0.00060519, "INCLINATION": 97.3596, "RA_OF_ASC_NODE": 3.1077, "ARG_OF_PERICENTER": 305.4165, "MEAN_ANOMALY": 54.6507, "EPHEMERIS_TYPE": 0, "CLASSIFICATION_TYPE": "U", "NORAD_CAT_ID": 58646, "ELEMENT_SET_NO": 999, "REV_AT_EPOCH": 10860, "BSTAR": 0.00037087642, "MEAN_MOTION_DOT": 9.032e-05, "MEAN_MOTION_DDOT": 0}, "tle": {"line1": "1 58646U 23205B   25343.62334597  .00009032  00000+0  37088-3 0  9999", "line2": "2 58646  97.3596   3.1077 0006051 305.4165  54.6507 15.24419608108606"}}, "geometry": {"type": "Point", "coordinates": [178.53604903057334, -32.936784155689544]}}, {"type": "Feature", "properties": {"norad_id": 58647, "name": "TIANMU-1 13", "group": "weather", "lat": 28.461157789520783, "lon": -0.48019607149201843, "alt_km": 492.4771320932323, "timestamp": "2025-12-09T20:37:08.926694+00:00", "meta": {"OBJECT_NAME": "TIANMU-1 13", "OBJECT_ID": "2023-205C", "EPOCH": "2025-12-09T14:11:31.979040", "MEAN_MOTION": 15.24462904, "ECCENTRICITY": 0.00060544, "INCLINATION": 97.3624, "RA_OF_ASC_NODE": 3.2759, "ARG_OF_PERICENTER": 281.7098, "MEAN_ANOMALY": 78.346, "EPHEMERIS_TYPE": 0, "CLASSIFICATION_TYPE": "U", "NORAD_CAT_ID": 58647, "ELEMENT_SET_NO": 999, "REV_AT_EPOCH": 10859, "BSTAR": 0.00037949965, "MEAN_MOTION_DOT": 9.256e-05, "MEAN_MOTION_DDOT": 0}, "tle": {"line1": "1 58647U 23205C   25343.59134235  .00009256  00000+0  37950-3 0  9999", "line2": "2 58647  97.3624   3.2759 0006054 281.7098  78.3460 15.24462904108597"}}, "geometry": {"type": "Point", "coordinates": [-0.48019607149201843, 28.461157789520783]}}, {"type": "Feature", "properties": {"norad_id": 58648, "name": "TIANMU-1 14", "group": "weather", "lat": 59.182489739719045, "lon": -164.6030835553259, "alt_km": 491.3519386738426, "timestamp": "2025-12-09T20:37:08.926704+00:00", "meta": {"OBJECT_NAME": "TIANMU-1 14", "OBJECT_ID": "2023-205D", "EPOCH": "2025-12-09T13:47:34.641600", "MEAN_MOTION": 15.24446873, "ECCENTRICITY": 0.0006912, "INCLINATION": 97.3556, "RA_OF_ASC_NODE": 2.6112, "ARG_OF_PERICENTER": 286.901, "MEAN_ANOMALY": 73.147, "EPHEMERIS_TYPE": 0, "CLASSIFICATION_TYPE": "U", "NORAD_CAT_ID": 58648, "ELEMENT_SET_NO": 999, "REV_AT_EPOCH": 10859, "BSTAR": 0.00037855925, "MEAN_MOTION_DOT": 9.23e-05, "MEAN_MOTION_DDOT": 0}, "tle": {"line1": "1 58648U 23205D   25343.57470650  .00009230  00000+0  37856-3 0  9999", "line2": "2 58648  97.3556   2.6112 0006912 286.9010  73.1470 15.24446873108593"}}, "geometry": {"type": "Point", "coordinates": [-164.6030835553259, 59.182489739719045]}}, {"type": "Feature", "properties": {"norad_id": 58660, "name": "TIANMU-1 19", "group": "weather", "lat": -19.50762567640497, "lon": 97.5552044874593, "alt_km": 486.97618026544933, "timestamp": "2025-12-09T20:37:08.926715+00:00", "meta": {"OBJECT_NAME": "TIANMU-1 19", "OBJECT_ID": "2023-208A", "EPOCH": "2025-12-09T14:25:02.436960", "MEAN_MOTION": 15.27758449, "ECCENTRICITY": 0.00040581, "INCLINATION": 97.4389, "RA_OF_ASC_NODE": 94.6443, "ARG_OF_PERICENTER": 267.1189, "MEAN_ANOMALY": 92.9586, "EPHEMERIS_TYPE": 0, "CLASSIFICATION_TYPE": "U", "NORAD_CAT_ID": 58660, "ELEMENT_SET_NO": 999, "REV_AT_EPOCH": 10834, "BSTAR": 0.00052278564, "MEAN_MOTION_DOT": 0.00014117, "MEAN_MOTION_DDOT": 0}, "tle": {"line1": "1 58660U 23208A   25343.60072265  .00014117  00000+0  52279-3 0  9996", "line2": "2 58660  97.4389  94.6443 0004058 267.1189  92.9586 15.27758449108345"}}, "geometry": {"type": "Point", "coordinates": [97.5552044874593, -19.50762567640497]}}, {"type": "Feature", "properties": {"norad_id": 58661, "name": "TIANMU-1 20", "group": "weather", "lat": 41.84158547133796, "lon": 88.63396558612706, "alt_km": 478.0442761402319, "timestamp": "2025-12-09T20:37:08.926725+00:00", "meta": {"OBJECT_NAME": "TIANMU-1 20", "OBJECT_ID": "2023-208B", "EPOCH": "2025-12-09T14:09:07.028352", "MEAN_MOTION": 15.28949446, "ECCENTRICITY": 0.00063185, "INCLINATION": 97.4327, "RA_OF_ASC_NODE": 95.0778, "ARG_OF_PERICENTER": 279.1842, "MEAN_ANOMALY": 80.8683, "EPHEMERIS_TYPE": 0, "CLASSIFICATION_TYPE": "U", "NORAD_CAT_ID": 58661, "ELEMENT_SET_NO": 999, "REV_AT_EPOCH": 10841, "BSTAR": 0.00049390712, "MEAN_MOTION_DOT": 0.00013831, "MEAN_MOTION_DDOT": 0}, "tle": {"line1": "1 58661U 23208B   25343.58966468  .00013831  00000+0  49391-3 0  9994", "line2": "2 58661  97.4327  95.0778 0006318 279.1842  80.8683 15.28949446108416"}}, "geometry": {"type": "Point", "coordinates": [88.63396558612706, 41.84158547133796]}}]}